ONEWEB-0668             
1 56711U 23068B   25229.16474961 -.00000270  00000+0 -73907-3 0  9996
2 56711  87.9035 289.3585 0001733 111.8895 248.2420 13.16594148112470
ONEWEB-0676             
1 56712U 23068C   25229.52499289  .00000086  00000+0  19033-3 0  9990
2 56712  87.9025 289.3086 0002345  93.9871 266.1528 13.16596260112442
ONEWEB-0677             
1 56713U 23068D   25229.02321745  .00000042  00000+0  71381-4 0  9994
2 56713  87.9291 335.0476 0002205 103.9392 256.1987 13.20772620110352
ONEWEB-0678             
1 56714U 23068E   25229.53912932  .00000182  00000+0  44871-3 0  9993
2 56714  87.9085 319.7506 0001980  89.0038 271.1319 13.15547577110066
ONEWEB-0679             
1 56715U 23068F   25228.58215447 -.00000109  00000+0 -31784-3 0  9995
2 56715  87.9027 289.4889 0002307 108.5427 251.5954 13.16592805111640
ONEWEB-0680             
1 56716U 23068G   25229.47898774 -.00000010  00000+0 -55626-4 0  9998
2 56716  87.9249 304.5635 0001897 116.9882 243.1446 13.21827243111675
ONEWEB-0681             
1 56717U 23068H   25229.58335648  .00043251  00000+0  10421+0 0  9998
2 56717  87.9251 304.5577 0003175  99.1804 142.1154 13.21813420111677
ONEWEB-0682             
1 56718U 23068J   25229.48921444  .00000102  00000+0  23740-3 0  9993
2 56718  87.9069 319.7843 0001966 114.7076 245.4259 13.15549448110222
